{
"type": "FeatureCollection",
"name": "開局エリア",
"crs": { "type": "name", "properties": { "name": "urn:ogc:def:crs:EPSG::4612" } },
"features": [
{ "type": "Feature", "properties": { "ID": "RNE2901000567", "Date": "2026年8月20日", "Type": "4G", "PostalCode": "6300101", "Prefecture": "奈良県", "City": "生駒市", "addr": "奈良県生駒市高山町" }, "geometry": { "type": "Polygon", "coordinates": [ [ [ 135.736622860531355, 34.734682152536138 ], [ 135.73675220750988, 34.734644676135481 ], [ 135.736920769340117, 34.734218379617012 ], [ 135.73688861903517, 34.734099710596411 ], [ 135.736643229777229, 34.733994818791459 ], [ 135.736366667654096, 34.733705198657823 ], [ 135.736252307223708, 34.733712141257293 ], [ 135.736162161428069, 34.733500948137042 ], [ 135.736073379947982, 34.733391175165814 ], [ 135.7362772665021, 34.733259623567612 ], [ 135.736293248873238, 34.73312218200045 ], [ 135.73625421025983, 34.733003780609444 ], [ 135.736175590687623, 34.732938539102186 ], [ 135.736147085730067, 34.732888193878381 ], [ 135.736157798538187, 34.73275130462067 ], [ 135.736195015134285, 34.732462205602005 ], [ 135.736209917447241, 34.732275885305619 ], [ 135.736236832463618, 34.732154946394374 ], [ 135.736282348621785, 34.732039400365643 ], [ 135.736196712736017, 34.731926815992438 ], [ 135.736266066794343, 34.731524537133367 ], [ 135.736392390975794, 34.731240838180021 ], [ 135.73652226170131, 34.730968978390713 ], [ 135.736612518511834, 34.730753236995234 ], [ 135.73672968311763, 34.73053304367005 ], [ 135.736816313062803, 34.73033799967223 ], [ 135.736877719202653, 34.730181356735514 ], [ 135.737290424942728, 34.729989955512032 ], [ 135.737373093738285, 34.72990716493436 ], [ 135.737549007128166, 34.72975569192522 ], [ 135.737401829030148, 34.729769468570439 ], [ 135.737283877313786, 34.729767248294294 ], [ 135.737110693023141, 34.729743220521009 ], [ 135.736946616988547, 34.729711746299515 ], [ 135.736754683638253, 34.729655140857325 ], [ 135.736545070170394, 34.729604977262213 ], [ 135.736449018204809, 34.729603788875295 ], [ 135.736327438104752, 34.729602546588666 ], [ 135.736250185766863, 34.729610835031984 ], [ 135.736184476656945, 34.729624782016003 ], [ 135.736161318354192, 34.729643889563029 ], [ 135.736062666861471, 34.729695938920841 ], [ 135.736010350337807, 34.729702730419845 ], [ 135.735931453176477, 34.729658475927287 ], [ 135.735868318101353, 34.729627213427662 ], [ 135.735831885321971, 34.729616008849199 ], [ 135.735762544026869, 34.729624877114553 ], [ 135.735671226940212, 34.729656940103524 ], [ 135.735569623713388, 34.729684333022156 ], [ 135.735495398756797, 34.729700233592403 ], [ 135.735417564084599, 34.729704012875175 ], [ 135.735350698949759, 34.729698941409993 ], [ 135.735289983451196, 34.729671627709926 ], [ 135.735253627376778, 34.729629434847347 ], [ 135.735233875019389, 34.729536569044605 ], [ 135.735217111863051, 34.729456245737445 ], [ 135.735132065966383, 34.729427894463086 ], [ 135.735010489100233, 34.729418622111346 ], [ 135.734931465993071, 34.729414370355677 ], [ 135.734863314349639, 34.729438311653425 ], [ 135.734799904560475, 34.729493392638609 ], [ 135.734715819649068, 34.72954448575809 ], [ 135.73464646120047, 34.729565465934336 ], [ 135.734550342936416, 34.729584273623772 ], [ 135.73441712344308, 34.729600464256848 ], [ 135.734266317803844, 34.729607179789184 ], [ 135.734160522395769, 34.729610894059682 ], [ 135.734063450930961, 34.729547579766709 ], [ 135.733993095468321, 34.729493197354849 ], [ 135.733882078719915, 34.729416189523086 ], [ 135.733821441003244, 34.72936380008003 ], [ 135.733740112576442, 34.729319535226878 ], [ 135.733652680749287, 34.729283145508639 ], [ 135.733585872981365, 34.72925989968271 ], [ 135.733540828146943, 34.729273745812556 ], [ 135.733426400812533, 34.729315753446748 ], [ 135.733360046630793, 34.729337300741854 ], [ 135.733311396334045, 34.729338181277818 ], [ 135.733183838913504, 34.729304661170225 ], [ 135.733086630207652, 34.729284447047242 ], [ 135.73298151462194, 34.72926252640913 ], [ 135.732901273454672, 34.729258407314447 ], [ 135.732819760031163, 34.72926527163321 ], [ 135.73276375033754, 34.729293179748737 ], [ 135.732678391681134, 34.729368352040915 ], [ 135.732635707056033, 34.729404458346394 ], [ 135.732556022419118, 34.729419778452929 ], [ 135.732453764006124, 34.729450684788361 ], [ 135.732332068975154, 34.729484505435302 ], [ 135.732261488418743, 34.729500409260268 ], [ 135.732166544076478, 34.729525414317038 ], [ 135.732046085828046, 34.729552195148365 ], [ 135.73191530741957, 34.729565431035667 ], [ 135.731841085466385, 34.72957935412748 ], [ 135.731783844575489, 34.729612330041562 ], [ 135.731711914371147, 34.729669501101263 ], [ 135.73161441862635, 34.72973140522523 ], [ 135.731563315838713, 34.729745378864912 ], [ 135.731413085976129, 34.729758571638264 ], [ 135.731203900332645, 34.729774311096193 ], [ 135.731100743495801, 34.729779578547344 ], [ 135.731037262316903, 34.729782959981613 ], [ 135.730786161745982, 34.729786915531015 ], [ 135.730727877158984, 34.729759602498639 ], [ 135.73063441674708, 34.729708124930553 ], [ 135.730525092646246, 34.729668866366623 ], [ 135.730405395197238, 34.729644938818929 ], [ 135.730287452337791, 34.729639608155772 ], [ 135.730143989470605, 34.729637319978977 ], [ 135.730091845810392, 34.729591003836525 ], [ 135.730021531741869, 34.729524645848024 ], [ 135.729952367829384, 34.72947829207213 ], [ 135.729879551526096, 34.729434043040172 ], [ 135.729812143620791, 34.729412202760209 ], [ 135.729717316288571, 34.729401005942684 ], [ 135.729599408503958, 34.72939074460357 ], [ 135.729500894444186, 34.729398556319047 ], [ 135.729370686515097, 34.729426298541071 ], [ 135.729188718737419, 34.729479563297446 ], [ 135.729098635838909, 34.729511619777099 ], [ 135.72899756556339, 34.729550554450874 ], [ 135.728907472000401, 34.729585429048463 ], [ 135.728798615152527, 34.729592652815867 ], [ 135.728663646748828, 34.729595452570592 ], [ 135.728522570240926, 34.729601055786354 ], [ 135.728411984763767, 34.729575737778028 ], [ 135.728259501664468, 34.729540889165904 ], [ 135.728178078640468, 34.729526622574127 ], [ 135.728116648169902, 34.729529022121262 ], [ 135.728030226797785, 34.729555874842021 ], [ 135.727987679125846, 34.729555780292216 ], [ 135.727894117494571, 34.7295295130467 ], [ 135.727834791443399, 34.729449092067178 ], [ 135.727796364084213, 34.729304345401914 ], [ 135.727777118163345, 34.729242043882195 ], [ 135.727713939172389, 34.729224858925519 ], [ 135.727633048272793, 34.729230172348245 ], [ 135.727583142686541, 34.729243161048792 ], [ 135.72756478047441, 34.729282278720603 ], [ 135.727534250986281, 34.729324468179655 ], [ 135.727478164930858, 34.729368431880481 ], [ 135.727401466122473, 34.72939629182207 ], [ 135.727358875603727, 34.729409296751655 ], [ 135.727318711656636, 34.7294172361809 ], [ 135.727278561295464, 34.729421232149186 ], [ 135.727251832619146, 34.729423144045406 ], [ 135.727248302225121, 34.729380878712121 ], [ 135.727241185685443, 34.729326773293579 ], [ 135.727245007174673, 34.729273537954931 ], [ 135.727252635656583, 34.729178193395207 ], [ 135.727296620394782, 34.729038701510127 ], [ 135.727324213241729, 34.728961994749923 ], [ 135.727362732837378, 34.728883059169107 ], [ 135.727371136407754, 34.728824480895113 ], [ 135.727352175321869, 34.728772602809897 ], [ 135.727314063998165, 34.728720682015052 ], [ 135.727251369955951, 34.728666311778376 ], [ 135.727188614902815, 34.728636873267689 ], [ 135.727121756401885, 34.728597283761992 ], [ 135.72708906650351, 34.728563404811993 ], [ 135.727067340173619, 34.728522789124838 ], [ 135.727042877278393, 34.728477519545621 ], [ 135.727010439341711, 34.728366872786758 ], [ 135.726988896647896, 34.72826991414528 ], [ 135.726980812093615, 34.728231581975272 ], [ 135.726993828038218, 34.728190338379328 ], [ 135.727021191913281, 34.727994601360422 ], [ 135.727074733321018, 34.727802443206464 ], [ 135.727064046668062, 34.72772508590316 ], [ 135.727044901495759, 34.727631792821221 ], [ 135.727076128106432, 34.727558895253068 ], [ 135.727152950172666, 34.727492861897979 ], [ 135.727196971627023, 34.727420697131457 ], [ 135.727245236172109, 34.7273479788998 ], [ 135.72740107114987, 34.727289164078549 ], [ 135.727547158429729, 34.727237229577057 ], [ 135.727676213592133, 34.727189341971105 ], [ 135.727728655701924, 34.727137198697683 ], [ 135.727740970749039, 34.727095108199826 ], [ 135.727737300927203, 34.726912823871473 ], [ 135.727591385163151, 34.726912499087184 ], [ 135.727517346362532, 34.726871343230606 ], [ 135.727350722263765, 34.726883931397786 ], [ 135.727182539282893, 34.726812844119252 ], [ 135.726882865123002, 34.726979801248568 ], [ 135.726637740865215, 34.727010806949266 ], [ 135.726606082972665, 34.727026795058649 ], [ 135.726629566411361, 34.726915424911631 ], [ 135.726574831048538, 34.726912345044909 ], [ 135.726538322819721, 34.726924236194627 ], [ 135.726483493201158, 34.72695637108977 ], [ 135.726443256467945, 34.726993327900622 ], [ 135.726225530507719, 34.726831694522538 ], [ 135.726074692743765, 34.726849528148492 ], [ 135.725974887771059, 34.726874378677429 ], [ 135.725831219068652, 34.726930260254264 ], [ 135.725803095138531, 34.72679215237978 ], [ 135.725648637434062, 34.726801807364403 ], [ 135.725557373384447, 34.726823718038702 ], [ 135.725495220571645, 34.726864710324307 ], [ 135.725459838917288, 34.726903790575932 ], [ 135.725384519469458, 34.726882492245046 ], [ 135.72532981133898, 34.72687743982231 ], [ 135.72517228697248, 34.726898637415253 ], [ 135.725106613012713, 34.726901447977212 ], [ 135.724991164427138, 34.726878087182925 ], [ 135.724910978971167, 34.72685790508806 ], [ 135.724892890207286, 34.726813633241441 ], [ 135.724900614466435, 34.726683213068263 ], [ 135.725050223752703, 34.726669463123415 ], [ 135.725046507468136, 34.726322088751388 ], [ 135.725099961565718, 34.726338267622246 ], [ 135.72515095732038, 34.726356412469435 ], [ 135.725206949905044, 34.726340479373675 ], [ 135.725187651530774, 34.726294374189919 ], [ 135.725187797392891, 34.726250143864796 ], [ 135.7252175613703, 34.726194289033288 ], [ 135.725250405785886, 34.726180840003998 ], [ 135.725267815131929, 34.726107771160819 ], [ 135.724550139941243, 34.726139542773346 ], [ 135.723920991929901, 34.726183483549356 ], [ 135.723331684914513, 34.726252160693043 ], [ 135.723131715534748, 34.726251708554095 ], [ 135.722602966442082, 34.726617905798641 ], [ 135.722311242716785, 34.726672236711231 ], [ 135.722259429893398, 34.726819966719127 ], [ 135.721764996512377, 34.726757540449192 ], [ 135.721680939116027, 34.727078287156061 ], [ 135.721598912539434, 34.727117767230631 ], [ 135.721474502587, 34.727096749362616 ], [ 135.721308732527859, 34.727035970407997 ], [ 135.721004573257545, 34.726890133887359 ], [ 135.72097570902784, 34.727031604955677 ], [ 135.72090747236993, 34.727191918817041 ], [ 135.720675514203123, 34.72717590288574 ], [ 135.720285556048935, 34.727115459964949 ], [ 135.719800957949644, 34.72704366769554 ], [ 135.719785345178963, 34.727196744791456 ], [ 135.719152678925184, 34.727474905063509 ], [ 135.719145007507194, 34.727541269960206 ], [ 135.718947183842687, 34.727497541483267 ], [ 135.71890059982141, 34.727487526834125 ], [ 135.718875542788481, 34.727470340302645 ], [ 135.718865788856846, 34.727448681928202 ], [ 135.718865132158157, 34.72742939233229 ], [ 135.718862808251174, 34.727361228304709 ], [ 135.718780895701485, 34.727366448866526 ], [ 135.718796733029563, 34.727526954300465 ], [ 135.718376499927047, 34.72747910933542 ], [ 135.718014474274128, 34.727654971450782 ], [ 135.718011991310249, 34.727743313799365 ], [ 135.71725525433223, 34.727848163741882 ], [ 135.717252763397198, 34.727852391525722 ], [ 135.717231839724747, 34.727916012454791 ], [ 135.717232566420307, 34.727922028250724 ], [ 135.71723493256161, 34.727941614537642 ], [ 135.717241485663607, 34.727995902542951 ], [ 135.717252107633897, 34.72804565167408 ], [ 135.71715492015565, 34.728060900271544 ], [ 135.717161216281454, 34.728110969551778 ], [ 135.717167044172754, 34.728160758226998 ], [ 135.717151022208924, 34.728285230783669 ], [ 135.717134805800498, 34.728381318921187 ], [ 135.717115378731677, 34.728425490392773 ], [ 135.717083559118521, 34.728470492120827 ], [ 135.717038624486975, 34.728519069202385 ], [ 135.716972902363977, 34.728584167429062 ], [ 135.716920717485067, 34.728637714485799 ], [ 135.716854562913795, 34.728720567214808 ], [ 135.716834054333788, 34.728770892735497 ], [ 135.716800078432982, 34.728949916397049 ], [ 135.716792368787708, 34.729041578839428 ], [ 135.716836989692439, 34.729045396207667 ], [ 135.716879558108786, 34.72905599926947 ], [ 135.716907479740939, 34.729082573685105 ], [ 135.716896419028046, 34.729243270303805 ], [ 135.716917355673928, 34.729295436522314 ], [ 135.716862057876625, 34.729363484985207 ], [ 135.716503106755738, 34.72962986599007 ], [ 135.716489136096101, 34.729686600353098 ], [ 135.716494524912889, 34.729694923599901 ], [ 135.716585031693199, 34.729834726420904 ], [ 135.716570828984089, 34.729959636117108 ], [ 135.716536078441209, 34.730056185837554 ], [ 135.716549604800974, 34.730130168855069 ], [ 135.71617039203997, 34.730282828349289 ], [ 135.716087595476409, 34.730333768079021 ], [ 135.715963369264159, 34.730413066517421 ], [ 135.715907895529654, 34.730532245975645 ], [ 135.715859229102733, 34.730668627286398 ], [ 135.715759488672347, 34.73062853165834 ], [ 135.715834778076243, 34.731058894138009 ], [ 135.715973391311508, 34.731401506558527 ], [ 135.71608405026862, 34.731736447465757 ], [ 135.716153443265426, 34.731882680550129 ], [ 135.716206657377455, 34.73198859002369 ], [ 135.716332226206532, 34.732054381058198 ], [ 135.716550849775786, 34.732150954639579 ], [ 135.716801975327911, 34.73228605673463 ], [ 135.716931945779237, 34.732424822904662 ], [ 135.717039729009969, 34.732923153883178 ], [ 135.717113369363574, 34.733188704700758 ], [ 135.717196212191283, 34.733488928853028 ], [ 135.71725137681986, 34.733712178793546 ], [ 135.717232199886013, 34.733869756559798 ], [ 135.71713859838664, 34.733992652297324 ], [ 135.716963342977976, 34.734155786237544 ], [ 135.7167390391715, 34.734347542050315 ], [ 135.716566095119049, 34.734520259875005 ], [ 135.71645827835539, 34.734708340024717 ], [ 135.716471706143523, 34.734873882449449 ], [ 135.71650355038858, 34.735093134679246 ], [ 135.716549275431703, 34.735350873287402 ], [ 135.716615546274596, 34.735726137891987 ], [ 135.716688690525558, 34.736137759129534 ], [ 135.716805509482498, 34.736720767213363 ], [ 135.717000731272918, 34.736859683085619 ], [ 135.717251588051084, 34.737071833085949 ], [ 135.717442025099359, 34.737245247743758 ], [ 135.717697580125957, 34.737449660261426 ], [ 135.717850663753978, 34.73765003322243 ], [ 135.717938776178045, 34.73776954399235 ], [ 135.718010260830141, 34.737986913837091 ], [ 135.717995781689154, 34.738136896511477 ], [ 135.71791592560038, 34.738325182377565 ], [ 135.71785016472262, 34.738482793798006 ], [ 135.717821537548616, 34.738678804429348 ], [ 135.717848703997873, 34.738913539480563 ], [ 135.717894840183362, 34.73905210997814 ], [ 135.717961810057488, 34.739223408314089 ], [ 135.717985739863678, 34.739362491682705 ], [ 135.717822836199929, 34.739390007237667 ], [ 135.717660858793607, 34.739422085589254 ], [ 135.717536556390144, 34.73945907382965 ], [ 135.717523151377691, 34.739547389962404 ], [ 135.717441214806598, 34.739556216267054 ], [ 135.717424230466008, 34.739733772982305 ], [ 135.717076933273887, 34.739737480007101 ], [ 135.717020405840429, 34.73998165626179 ], [ 135.717012345753261, 34.740028114727849 ], [ 135.717012234422924, 34.74013669574569 ], [ 135.717024204188135, 34.740149344592943 ], [ 135.716971078855323, 34.740356567341991 ], [ 135.716984089008037, 34.740384543672889 ], [ 135.716937636063562, 34.740530347219448 ], [ 135.716945726544679, 34.740533174822147 ], [ 135.717012283541663, 34.740581643730266 ], [ 135.717092765837918, 34.740686769148425 ], [ 135.717141963479264, 34.740784498242142 ], [ 135.71716591363176, 34.740873013246542 ], [ 135.717131092219262, 34.741007876976184 ], [ 135.717104689280234, 34.741044579901221 ], [ 135.717108673981556, 34.741064591143164 ], [ 135.717130808716604, 34.741091265173715 ], [ 135.71732946299764, 34.741227651835175 ], [ 135.717404984514729, 34.741311918905446 ], [ 135.717557804258718, 34.741554126490968 ], [ 135.717655439240389, 34.741671968826516 ], [ 135.71792045604866, 34.741908377522442 ], [ 135.717518987006571, 34.742269321675863 ], [ 135.717995107098176, 34.742545514966935 ], [ 135.718059609872597, 34.742602429486205 ], [ 135.718109866638144, 34.742684103065649 ], [ 135.717899113028466, 34.742837155184723 ], [ 135.717951281657747, 34.742952216357736 ], [ 135.718014592101611, 34.743058710665977 ], [ 135.717862798767499, 34.743110198199318 ], [ 135.717284357070639, 34.743196623532249 ], [ 135.717192291504205, 34.743222329637085 ], [ 135.716841581970414, 34.743218985243075 ], [ 135.716773661721618, 34.743276299257388 ], [ 135.716641856688142, 34.743396148299375 ], [ 135.716574980745861, 34.743440928125437 ], [ 135.716358005656588, 34.743490432189624 ], [ 135.716283676892914, 34.743500262028711 ], [ 135.716237236792551, 34.743488603670571 ], [ 135.716020293185693, 34.743378795042865 ], [ 135.715893052475963, 34.743348497568981 ], [ 135.715734184086472, 34.743397289823008 ], [ 135.71564011551277, 34.743428624530821 ], [ 135.715615513736623, 34.743437019122929 ], [ 135.715584647402977, 34.743480895818344 ], [ 135.715547666699422, 34.74351630676469 ], [ 135.715502506548432, 34.743548318117 ], [ 135.715367193568085, 34.743595333322887 ], [ 135.715274975645059, 34.743615403283975 ], [ 135.715230065403631, 34.743617975459088 ], [ 135.715203893806091, 34.743586221886588 ], [ 135.715197187276033, 34.74330828972073 ], [ 135.715158099977884, 34.743223964971747 ], [ 135.715072796621854, 34.74315573180801 ], [ 135.714969033325161, 34.743127882440007 ], [ 135.714825486683253, 34.743125014140702 ], [ 135.714684866178345, 34.743164972714737 ], [ 135.714623541461179, 34.743232865398618 ], [ 135.714610275297133, 34.743282558027083 ], [ 135.714609387413901, 34.743317348304373 ], [ 135.714666523613943, 34.743612159551418 ], [ 135.714657049739998, 34.743700315686475 ], [ 135.714604931606004, 34.743758087873282 ], [ 135.71449175850546, 34.743805717042235 ], [ 135.714066839574514, 34.74391304931445 ], [ 135.713920051742178, 34.743965529777249 ], [ 135.713734865052885, 34.744074687571413 ], [ 135.714327431136354, 34.744518225659775 ], [ 135.714595721052291, 34.744665061823596 ], [ 135.714793894231775, 34.744768772345687 ], [ 135.714903734041712, 34.744804242844715 ], [ 135.715077682820976, 34.744850002783686 ], [ 135.714532303062157, 34.74534259298764 ], [ 135.714063947499, 34.7456361833732 ], [ 135.713748903807868, 34.745766449087036 ], [ 135.713464532350883, 34.745853965099755 ], [ 135.713116086724114, 34.745921186656751 ], [ 135.711137347136599, 34.746202494963171 ], [ 135.710715591395171, 34.746267002285357 ], [ 135.710363968594891, 34.746369565592779 ], [ 135.709908122425759, 34.746574990480894 ], [ 135.709237660200444, 34.747011759784094 ], [ 135.709018683621821, 34.747178722771054 ], [ 135.707942422246902, 34.747918072798207 ], [ 135.707372648030685, 34.748385355317041 ], [ 135.707250167056003, 34.748468170242226 ], [ 135.707070050852565, 34.748579723584342 ], [ 135.707110020552534, 34.748763642013458 ], [ 135.706938526999039, 34.749110170927672 ], [ 135.706931490554012, 34.749272847847777 ], [ 135.706935865313511, 34.749502602166416 ], [ 135.706880986144085, 34.74970037912388 ], [ 135.706870188444213, 34.749834452365242 ], [ 135.707052469359127, 34.750083929668072 ], [ 135.707088262148204, 34.750181772379094 ], [ 135.707112050207172, 34.750387203691602 ], [ 135.707134144039458, 34.750704333758705 ], [ 135.707193124062997, 34.750808711450539 ], [ 135.707332035488548, 34.750919759175083 ], [ 135.707642611048243, 34.751006566633194 ], [ 135.707830664905146, 34.751089982144535 ], [ 135.707902732611643, 34.75113691968302 ], [ 135.707950060038513, 34.751255214380969 ], [ 135.707908296569883, 34.75139329878251 ], [ 135.707755536545648, 34.751544077509337 ], [ 135.707685578138154, 34.751631243965193 ], [ 135.7076595783426, 34.751690765829764 ], [ 135.707669687386385, 34.751746007211203 ], [ 135.707732653178226, 34.751815319911941 ], [ 135.707818613102489, 34.751946384262752 ], [ 135.707933934929656, 34.752172176712087 ], [ 135.708043253953008, 34.752267095495192 ], [ 135.708188830287469, 34.75232181451937 ], [ 135.708291762623077, 34.752394461928638 ], [ 135.708534528578241, 34.75269394548728 ], [ 135.708587036462234, 34.752801547399251 ], [ 135.708648729278735, 34.75286339043619 ], [ 135.708745357303258, 34.752902920284917 ], [ 135.708905275032748, 34.752914005853206 ], [ 135.708967197396618, 34.752909927200619 ], [ 135.709061475496753, 34.752883528591461 ], [ 135.709165945589234, 34.752889129950937 ], [ 135.709256071120762, 34.752933855784114 ], [ 135.709433649240452, 34.75306203693993 ], [ 135.709557330760845, 34.7531069835617 ], [ 135.709884812730763, 34.753163115723623 ], [ 135.710103887233231, 34.753223217341251 ], [ 135.710152777543414, 34.753261505340568 ], [ 135.710170661045424, 34.753314792989777 ], [ 135.710151057577917, 34.753381796572555 ], [ 135.710081040994794, 34.753485868490529 ], [ 135.710052155679932, 34.753632718881725 ], [ 135.710065968628754, 34.75374008700431 ], [ 135.710114739825968, 34.753812605195222 ], [ 135.710194464915304, 34.753885195290067 ], [ 135.710199509408312, 34.753919296097919 ], [ 135.710122646425162, 34.754132941171285 ], [ 135.710071523533259, 34.754367917496396 ], [ 135.710078940743983, 34.754461466685306 ], [ 135.71011603085239, 34.754549874037984 ], [ 135.710182871922768, 34.754622434828363 ], [ 135.710244647216228, 34.754660894729483 ], [ 135.710257421073521, 34.754699239039326 ], [ 135.710232415468994, 34.754840604466828 ], [ 135.710247711880442, 34.754889518748108 ], [ 135.710515354950246, 34.755088059901169 ], [ 135.71058213884794, 34.755171324661688 ], [ 135.710594822851363, 34.755235164552836 ], [ 135.710571419255558, 34.755290468321881 ], [ 135.71050288631929, 34.755335945793142 ], [ 135.710370990494312, 34.755424940204634 ], [ 135.710290765310646, 34.755495040655802 ], [ 135.710216743523006, 34.755634177548203 ], [ 135.710132200415018, 34.75583512752025 ], [ 135.710002698633502, 34.756344315883801 ], [ 135.709863974344927, 34.756543025375876 ], [ 135.709780795755051, 34.756719467949878 ], [ 135.709783924798217, 34.756935415125518 ], [ 135.70981775022355, 34.757219612032934 ], [ 135.709735289515436, 34.757562976420822 ], [ 135.709637794016999, 34.757770234431376 ], [ 135.709642569439666, 34.757887300606335 ], [ 135.709569960457401, 34.75798713964587 ], [ 135.709454808679425, 34.758087863728697 ], [ 135.70930493986549, 34.75814709218654 ], [ 135.70905016310968, 34.758324112642981 ], [ 135.708969695238125, 34.758468726389182 ], [ 135.708780865712242, 34.758602236115991 ], [ 135.708721237601651, 34.758680836055369 ], [ 135.708698899188533, 34.758796852259387 ], [ 135.708587370491557, 34.75896463332213 ], [ 135.708594988525903, 34.759000711830055 ], [ 135.708628229463244, 34.759018539403371 ], [ 135.708836469022117, 34.759045234881199 ], [ 135.709006949426197, 34.759107618930251 ], [ 135.709179997520124, 34.759265512499468 ], [ 135.709405995267531, 34.759589324722832 ], [ 135.709524016088608, 34.759761455002419 ], [ 135.709477056795635, 34.759956999299249 ], [ 135.709337533422087, 34.760138096917807 ], [ 135.709250071486451, 34.760323966963888 ], [ 135.709071626145629, 34.760470319509302 ], [ 135.708900541095034, 34.760579643439208 ], [ 135.708573559497495, 34.76058605002369 ], [ 135.708382440756083, 34.760628416644138 ], [ 135.708225483941845, 34.760833417196018 ], [ 135.708119009769888, 34.761080092380013 ], [ 135.708049061120846, 34.76122304016107 ], [ 135.708131014880024, 34.761367618423506 ], [ 135.708162167784224, 34.761560953685304 ], [ 135.70817858415262, 34.761825811056092 ], [ 135.708207460907289, 34.76184729071786 ], [ 135.708295009713993, 34.76185059773011 ], [ 135.708407137212959, 34.761835934144564 ], [ 135.708537194071539, 34.761879205807631 ], [ 135.708661170101834, 34.76200824759978 ], [ 135.708706974307518, 34.762149217320598 ], [ 135.708699140370356, 34.762314992314671 ], [ 135.708567372620649, 34.762765714254265 ], [ 135.70855226292602, 34.762949360673737 ], [ 135.708541145675895, 34.76322964759207 ], [ 135.708609908177294, 34.763425466219381 ], [ 135.708707671914112, 34.763595154794878 ], [ 135.708887919846944, 34.763770954439117 ], [ 135.70906690218419, 34.763888294156168 ], [ 135.709533171696165, 34.76413407651188 ], [ 135.709649545559387, 34.76421140270282 ], [ 135.709784193106174, 34.764389769003792 ], [ 135.709812999807383, 34.764425756552328 ], [ 135.709827156707206, 34.764514109639073 ], [ 135.709808097898161, 34.764589143325232 ], [ 135.709764605569973, 34.764610592206942 ], [ 135.70939686080871, 34.764688461843519 ], [ 135.709023037543886, 34.764845057028246 ], [ 135.708980403143386, 34.765041737519468 ], [ 135.708992537413053, 34.76529348489052 ], [ 135.708926660121506, 34.765516451621174 ], [ 135.70890301721343, 34.765657114669281 ], [ 135.708835859627158, 34.7658312002131 ], [ 135.708670296142344, 34.766012093640867 ], [ 135.708608856454049, 34.766198024959579 ], [ 135.708406937231672, 34.7664326403223 ], [ 135.708158859592743, 34.766626437226307 ], [ 135.707932333245736, 34.76686226150516 ], [ 135.707873844146178, 34.767033831174842 ], [ 135.707929855858254, 34.767154541448718 ], [ 135.708013437153312, 34.767250103351131 ], [ 135.708417546749757, 34.767532646263589 ], [ 135.708571692924579, 34.767725006065767 ], [ 135.708702300003807, 34.76802239169303 ], [ 135.708692968193503, 34.768213376474534 ], [ 135.708599673417297, 34.768411063752225 ], [ 135.708435779509614, 34.768521671991216 ], [ 135.708380501299104, 34.768605071318213 ], [ 135.708377318826933, 34.768690988157019 ], [ 135.708812713654083, 34.769547329054873 ], [ 135.70906066271823, 34.770222076488629 ], [ 135.709113868855439, 34.770316437758545 ], [ 135.709217713452233, 34.770409792855105 ], [ 135.709380762950985, 34.770535404440878 ], [ 135.709807999546939, 34.770837012552441 ], [ 135.709981064752981, 34.770997298955635 ], [ 135.710029915444949, 34.771092917210062 ], [ 135.710042503348319, 34.771215777148363 ], [ 135.710013167003552, 34.771337411054944 ], [ 135.709912746273517, 34.771498176796854 ], [ 135.709631205260024, 34.771745706013739 ], [ 135.709375921908787, 34.771921739406714 ], [ 135.709281707622409, 34.771972788983831 ], [ 135.709183243312339, 34.771993966030813 ], [ 135.709006723610372, 34.771991152787727 ], [ 135.708883791674936, 34.771980155343371 ], [ 135.708681361188837, 34.771936711219531 ], [ 135.7084113776111, 34.771934519984249 ], [ 135.708211108647276, 34.771865021102961 ], [ 135.707526151419756, 34.77139347829543 ], [ 135.707394383859508, 34.771334565837243 ], [ 135.707236967420044, 34.771342641374019 ], [ 135.707023482259615, 34.771421576134408 ], [ 135.706876317642383, 34.771408687558946 ], [ 135.706734327609183, 34.771362286489321 ], [ 135.706501472389846, 34.771173398910314 ], [ 135.706379678753251, 34.7711605710765 ], [ 135.706277932520521, 34.771223150232139 ], [ 135.706178260829006, 34.771417438995336 ], [ 135.706187589781933, 34.771651852531221 ], [ 135.70627311064257, 34.77186968697572 ], [ 135.706277805283435, 34.771978582515125 ], [ 135.706226747086987, 34.772062130956655 ], [ 135.706041174624886, 34.772139158801544 ], [ 135.705827522137099, 34.772264293053723 ], [ 135.705710339035875, 34.772389518412794 ], [ 135.705656681384284, 34.772483624292036 ], [ 135.705656326010853, 34.772584056635253 ], [ 135.705696732473029, 34.772646836439378 ], [ 135.705803100103225, 34.772714141343414 ], [ 135.705950325680021, 34.772710409937808 ], [ 135.706163534702, 34.772710921604563 ], [ 135.706351330379192, 34.772723767659002 ], [ 135.706493262285022, 34.772787072293895 ], [ 135.706764270745509, 34.772952950267126 ], [ 135.707055522942483, 34.773205787302594 ], [ 135.707172428227295, 34.773323121038935 ], [ 135.707261269259959, 34.773514339687146 ], [ 135.707325002759234, 34.773824947623552 ], [ 135.707345732068632, 34.774076996383947 ], [ 135.707328148327946, 34.774289511654842 ], [ 135.707288599803888, 34.774522258810414 ], [ 135.707309818924699, 34.774629222313813 ], [ 135.7074050470695, 34.774764393829621 ], [ 135.707459018419399, 34.774781003958338 ], [ 135.707837158194053, 34.774788385775793 ], [ 135.707982150307004, 34.774814086446995 ], [ 135.70852948875978, 34.774997381747511 ], [ 135.708642606115262, 34.775052163814621 ], [ 135.708707933633292, 34.77511655145063 ], [ 135.708821928753622, 34.775323041792014 ], [ 135.709017287123089, 34.775695095201506 ], [ 135.709139596648072, 34.775867657742673 ], [ 135.709221065411612, 34.776003076969381 ], [ 135.709304189939644, 34.776244709157339 ], [ 135.709323860998552, 34.776477878803746 ], [ 135.709331217220353, 34.77671778103776 ], [ 135.709334723864458, 34.776886821490891 ], [ 135.709455227691592, 34.776996837576121 ], [ 135.709532695398252, 34.777105201978927 ], [ 135.709879168699217, 34.777469583624459 ], [ 135.710077979724758, 34.777563022404138 ], [ 135.7101564560312, 34.777633074904415 ], [ 135.710149350685128, 34.778263830162167 ], [ 135.710185483711996, 34.778476752333745 ], [ 135.71017781301731, 34.77859026608499 ], [ 135.710166634272554, 34.778693347996125 ], [ 135.709941329555079, 34.779563319080303 ], [ 135.709685333476841, 34.779938099255908 ], [ 135.709604395061518, 34.780126234860987 ], [ 135.709622549465138, 34.780238260321092 ], [ 135.709662339284222, 34.780332588940162 ], [ 135.709760920779615, 34.7803963500902 ], [ 135.709875153759299, 34.780396621203678 ], [ 135.710068314451263, 34.78033735543211 ], [ 135.710173299047426, 34.780327321664579 ], [ 135.710275121451929, 34.780342916546473 ], [ 135.710572571730097, 34.78047983114228 ], [ 135.710972076283298, 34.780565995606828 ], [ 135.711123159930224, 34.780622273517643 ], [ 135.711212442533935, 34.780691223416561 ], [ 135.711305938691538, 34.780886251620025 ], [ 135.711669085199645, 34.781217985529594 ], [ 135.712042250866176, 34.78088164961359 ], [ 135.712364113286014, 34.780655766247733 ], [ 135.712753057015618, 34.78022269430037 ], [ 135.71294514197325, 34.780029746250747 ], [ 135.713106062423037, 34.779913070199434 ], [ 135.713152661991813, 34.779834298566279 ], [ 135.713177598731932, 34.779762942175012 ], [ 135.71319616585626, 34.779750307871197 ], [ 135.713262539536316, 34.779754266687327 ], [ 135.713854830052668, 34.779882990302269 ], [ 135.715063471216553, 34.77988961591192 ], [ 135.71537531699704, 34.779874987851649 ], [ 135.715459765869923, 34.779554588967081 ], [ 135.715549541567782, 34.779486058506862 ], [ 135.715785945862962, 34.779416601001678 ], [ 135.716347115414464, 34.779172244985013 ], [ 135.716569586867109, 34.779114303990632 ], [ 135.716647083194658, 34.779022784643821 ], [ 135.716655319634981, 34.778866308477177 ], [ 135.716630346066154, 34.778498466981119 ], [ 135.716670897491866, 34.778371224048527 ], [ 135.716932900527553, 34.778039682417031 ], [ 135.716989092427497, 34.777856551925694 ], [ 135.717124249505531, 34.777601061132998 ], [ 135.717189345984423, 34.777522329489756 ], [ 135.717241927422663, 34.777496955149203 ], [ 135.717401080416209, 34.777445204707575 ], [ 135.717924793183727, 34.7768584586549 ], [ 135.718032913943887, 34.77684081836302 ], [ 135.718121062966674, 34.776791438287567 ], [ 135.718338112622234, 34.776649668225524 ], [ 135.718472302935481, 34.776539823557641 ], [ 135.71874398302873, 34.776340143551785 ], [ 135.718976029114259, 34.776180235586168 ], [ 135.719079497241466, 34.77604890932345 ], [ 135.719184540626173, 34.775874622844384 ], [ 135.719411554828355, 34.775523553904065 ], [ 135.719551846199266, 34.775362166660955 ], [ 135.719566224483088, 34.775287684610149 ], [ 135.719549863444712, 34.775115514344975 ], [ 135.719646416195815, 34.774945715988522 ], [ 135.719788017993039, 34.774813348768888 ], [ 135.719938034933051, 34.774697340485069 ], [ 135.720011543323523, 34.774660180286752 ], [ 135.720093496179771, 34.774637125447967 ], [ 135.720306650502806, 34.774629583681737 ], [ 135.720428091884258, 34.774615915036144 ], [ 135.721670204201075, 34.774616348820722 ], [ 135.721871984996085, 34.774634273816687 ], [ 135.722134347019448, 34.774683747414194 ], [ 135.722371293563327, 34.774740063774452 ], [ 135.722643281854062, 34.774872241823942 ], [ 135.722924906295106, 34.775077688963364 ], [ 135.723113735228395, 34.775166575128949 ], [ 135.723819314781309, 34.775219434901267 ], [ 135.724237940563512, 34.775398423088859 ], [ 135.724519803075879, 34.775534000066344 ], [ 135.724811558832215, 34.775659174821598 ], [ 135.725077867617358, 34.775800632001236 ], [ 135.725261172491344, 34.775863865901719 ], [ 135.725481168987358, 34.775917884576288 ], [ 135.725579981183728, 34.775920358878842 ], [ 135.725695821394481, 34.775890472889628 ], [ 135.72587960519607, 34.775802421480961 ], [ 135.725882569842355, 34.775705938358485 ], [ 135.727608587904228, 34.775834575851817 ], [ 135.727723156331876, 34.775886385524615 ], [ 135.72779054822459, 34.776015564205238 ], [ 135.727821026289178, 34.776260731392931 ], [ 135.727894056309992, 34.776655446678909 ], [ 135.728051027387892, 34.777071900053656 ], [ 135.728139641211612, 34.777210845570252 ], [ 135.728218683266164, 34.777255954729789 ], [ 135.72853009786391, 34.777350316499067 ], [ 135.728684385497473, 34.777420805800318 ], [ 135.729051117987808, 34.777663616079018 ], [ 135.729228703882342, 34.777827265901465 ], [ 135.729754391942151, 34.777469365249267 ], [ 135.729574819921027, 34.777148790893087 ], [ 135.729457039643819, 34.776850608512838 ], [ 135.729410728859222, 34.776636396265033 ], [ 135.729358230467483, 34.776048745020489 ], [ 135.729331807277532, 34.775801896508746 ], [ 135.729287806059347, 34.775638541078486 ], [ 135.729179503271723, 34.775471098865907 ], [ 135.728947796051159, 34.775213515872792 ], [ 135.728903092339436, 34.775108333735673 ], [ 135.728878192113399, 34.775009957704846 ], [ 135.72889228844798, 34.77490786322231 ], [ 135.729017660538716, 34.774788124902273 ], [ 135.729139441694741, 34.774708946806591 ], [ 135.72947343248174, 34.774257795785495 ], [ 135.729554150093605, 34.774121900345705 ], [ 135.729575001322644, 34.774055740948853 ], [ 135.729562660183575, 34.773965984643645 ], [ 135.729505845255204, 34.773812601785863 ], [ 135.729439673685164, 34.773708500647736 ], [ 135.729357433927163, 34.773617463235837 ], [ 135.729333525300717, 34.773561770676281 ], [ 135.729341873992297, 34.773468115158934 ], [ 135.729366261315221, 34.773370692168825 ], [ 135.729364194274012, 34.773304623278449 ], [ 135.729263945772146, 34.773102124837955 ], [ 135.729264118574861, 34.773049161052711 ], [ 135.729280307435062, 34.773005670245986 ], [ 135.729410140083303, 34.772923692136949 ], [ 135.729464293349992, 34.772846055213726 ], [ 135.729501524397278, 34.772768521949551 ], [ 135.729518511553664, 34.772715735947919 ], [ 135.729532255197483, 34.772629840206015 ], [ 135.729544396874587, 34.772512106087937 ], [ 135.729561852259224, 34.772315219082245 ], [ 135.729581040054455, 34.772097629123223 ], [ 135.72958178140729, 34.771870138297672 ], [ 135.729536926095477, 34.77171396449841 ], [ 135.729524489795551, 34.771640830260353 ], [ 135.729532873959442, 34.771333627646356 ], [ 135.729511948057791, 34.771279490616649 ], [ 135.729507842135092, 34.771242998840172 ], [ 135.729566437173958, 34.771078600401296 ], [ 135.72966826791432, 34.770925706070031 ], [ 135.729748747112836, 34.770849253549962 ], [ 135.729892656856151, 34.770741668599868 ], [ 135.730104170255828, 34.770625498073336 ], [ 135.730241750117585, 34.770535083991938 ], [ 135.73033283717379, 34.770443863700301 ], [ 135.730386836028259, 34.770380171212956 ], [ 135.730545262288103, 34.770250220573921 ], [ 135.730589127205377, 34.770205944275489 ], [ 135.730683654232053, 34.770086981304324 ], [ 135.730724299508751, 34.769995509568943 ], [ 135.730724551387823, 34.769917894954688 ], [ 135.730714711153269, 34.769840258247463 ], [ 135.730684798161633, 34.769734827784625 ], [ 135.730641483352571, 34.769609929019275 ], [ 135.730472790480206, 34.769275434637166 ], [ 135.730402619206046, 34.769142166780362 ], [ 135.730352422295965, 34.769067118208838 ], [ 135.730329035629921, 34.769028329349183 ], [ 135.730369714672719, 34.768920235959548 ], [ 135.730406934414731, 34.768845519381401 ], [ 135.73042741710529, 34.768754004121455 ], [ 135.730504170500637, 34.768411734690972 ], [ 135.730531418539272, 34.768306569961929 ], [ 135.730538384040671, 34.768231646346088 ], [ 135.730542016849313, 34.768151221811848 ], [ 135.730219651328156, 34.768028530360368 ], [ 135.730168562942026, 34.767716408348733 ], [ 135.730126150452833, 34.767518685598823 ], [ 135.730096007216559, 34.767274364215247 ], [ 135.730079232974958, 34.766993589247988 ], [ 135.730092926163877, 34.766864306925974 ], [ 135.730132110666716, 34.766710429954827 ], [ 135.730239002027162, 34.766462745671838 ], [ 135.730263091386149, 34.766193892395926 ], [ 135.730258132239015, 34.766019915848325 ], [ 135.730250044165416, 34.765895657468903 ], [ 135.730208290821764, 34.765711740709158 ], [ 135.730182083856988, 34.765615052338113 ], [ 135.730310443702933, 34.765562508741155 ], [ 135.730499735407648, 34.765465445107722 ], [ 135.730625980567993, 34.765387260645909 ], [ 135.730771276599711, 34.765224598921812 ], [ 135.730904780434656, 34.764947813689304 ], [ 135.730993457036817, 34.764867714593031 ], [ 135.73116588800039, 34.764857243529356 ], [ 135.73141226291898, 34.764875106085405 ], [ 135.731522815631081, 34.764858864908994 ], [ 135.731578412320033, 34.764755169921706 ], [ 135.731597838236013, 34.764561103889335 ], [ 135.731706663974819, 34.764399206717279 ], [ 135.731863049659381, 34.764223609169868 ], [ 135.732049265619565, 34.764047229767606 ], [ 135.732082792152511, 34.763932499295699 ], [ 135.73207590348494, 34.763674564625205 ], [ 135.731912092630694, 34.763408965422506 ], [ 135.731650133288838, 34.763085820838995 ], [ 135.731644081752847, 34.762905362540913 ], [ 135.731681149170612, 34.762718658987851 ], [ 135.731722287704031, 34.762644936165678 ], [ 135.73183997468513, 34.762473902302084 ], [ 135.732218682062609, 34.762235960954811 ], [ 135.73230665163527, 34.762023730215169 ], [ 135.732336230739463, 34.761770522267362 ], [ 135.732312479127387, 34.761593687994349 ], [ 135.732193860139517, 34.76136734855961 ], [ 135.732144649134, 34.761206096531254 ], [ 135.732149572032569, 34.761049328388253 ], [ 135.73223760821304, 34.760822591108386 ], [ 135.732391304970065, 34.760452880477189 ], [ 135.732392450175666, 34.760296386389065 ], [ 135.732337494977969, 34.760004402534285 ], [ 135.73231478994677, 34.759854053663716 ], [ 135.732388211816783, 34.75969926478421 ], [ 135.732578841726308, 34.759526558540472 ], [ 135.732698487960846, 34.75943384836247 ], [ 135.732747233045671, 34.759382680015477 ], [ 135.73277626241449, 34.759245965581144 ], [ 135.732762416352728, 34.759106905348574 ], [ 135.732771371996222, 34.758995925783232 ], [ 135.73277915336962, 34.758799158994954 ], [ 135.732730812810161, 34.758711720482978 ], [ 135.73258971800351, 34.758568863921312 ], [ 135.732558484522571, 34.758502591530451 ], [ 135.732540271178351, 34.75838817261203 ], [ 135.73255491513811, 34.758279740853816 ], [ 135.732595318777612, 34.758161927551775 ], [ 135.732508617324754, 34.758002566172387 ], [ 135.732444443833231, 34.757949463578989 ], [ 135.732260438769345, 34.757815811376027 ], [ 135.732055181846448, 34.757617174665711 ], [ 135.732006925228148, 34.757511002055971 ], [ 135.731985802862965, 34.757406013951922 ], [ 135.731997648905804, 34.757278700764395 ], [ 135.732032174067854, 34.75721735984699 ], [ 135.73314569980684, 34.75641445835052 ], [ 135.733417617826376, 34.756337288210865 ], [ 135.733497653105957, 34.756346898154668 ], [ 135.733551929997617, 34.756365890375719 ], [ 135.733680289901429, 34.756467586804867 ], [ 135.733690655726804, 34.756355483201887 ], [ 135.733739633800155, 34.756237687263408 ], [ 135.733822854079705, 34.756145883425226 ], [ 135.733897376118108, 34.756091812321579 ], [ 135.733980458979374, 34.756049590832767 ], [ 135.73404501854796, 34.755975354464304 ], [ 135.734082551381704, 34.755866971516419 ], [ 135.734079851250414, 34.755817523261264 ], [ 135.734114428458781, 34.755732657858601 ], [ 135.734111667771458, 34.755702084942207 ], [ 135.734049170639338, 34.755572217169203 ], [ 135.733994954102798, 34.755541392929537 ], [ 135.733854939878597, 34.755508130612426 ], [ 135.733800799602193, 34.755446739465803 ], [ 135.733821232341882, 34.755175906307798 ], [ 135.734021949251314, 34.754973778158941 ], [ 135.734249500739566, 34.754918766841691 ], [ 135.734409528322516, 34.754931083718958 ], [ 135.734700093406929, 34.755071158684181 ], [ 135.734736259474573, 34.75513589162184 ], [ 135.734757685892333, 34.755260459270708 ], [ 135.734814779636054, 34.755325659550365 ], [ 135.734926825160244, 34.755372101839662 ], [ 135.735014056798548, 34.755379191105163 ], [ 135.735138731017059, 34.755372554751936 ], [ 135.735275929969447, 34.755338618921506 ], [ 135.735309200524483, 34.755328406496069 ], [ 135.735342417315252, 34.755335238778173 ], [ 135.735396280596376, 34.755383388187816 ], [ 135.735466730451009, 34.755441713923041 ], [ 135.735533129349079, 34.7554591821457 ], [ 135.735649439961776, 34.75546619158316 ], [ 135.735711787556113, 34.755462943828341 ], [ 135.735790819588431, 34.755432262983689 ], [ 135.735828250834771, 34.755415157600012 ], [ 135.735874012946482, 34.755401591499712 ], [ 135.735952957804813, 34.755398238114267 ], [ 135.73604850043148, 34.755401963110323 ], [ 135.736168948425529, 34.755415883091793 ], [ 135.736280989801941, 34.755450491778404 ], [ 135.73635566646621, 34.755488260739853 ], [ 135.736434447439819, 34.755536462168813 ], [ 135.736471769821549, 34.755560488039137 ], [ 135.736550638240942, 34.755581221505828 ], [ 135.736654501672206, 34.755584822860783 ], [ 135.736675411473414, 34.755536974206152 ], [ 135.736692302463268, 34.75545136600276 ], [ 135.736692618409307, 34.755351918121029 ], [ 135.736688762305874, 34.75526274485221 ], [ 135.736676413074264, 34.755221727241292 ], [ 135.736415610387354, 34.754972974333668 ], [ 135.736215413461082, 34.754725617643686 ], [ 135.73616842259915, 34.754629590701832 ], [ 135.736164219801196, 34.754522386377595 ], [ 135.736245819120853, 34.754314788020956 ], [ 135.736255199129459, 34.754223247698718 ], [ 135.736178717856461, 34.753968829225741 ], [ 135.736209270108645, 34.753800142128725 ], [ 135.736266108310588, 34.753603759987357 ], [ 135.736275524913822, 34.753494189391823 ], [ 135.736285488337813, 34.753205162323425 ], [ 135.736295069859437, 34.753043193270955 ], [ 135.736293381972871, 34.752863029277322 ], [ 135.736302017965926, 34.752763600753056 ], [ 135.736306416787045, 34.752688249246873 ], [ 135.736306645602923, 34.752616270080743 ], [ 135.736306863671274, 34.75254767154 ], [ 135.736311165687226, 34.752496266637692 ], [ 135.736332010158947, 34.752475886146009 ], [ 135.736369449212532, 34.752462161320402 ], [ 135.736456777298372, 34.752431498812157 ], [ 135.736510868823672, 34.75240766677414 ], [ 135.736544191530101, 34.752380411097015 ], [ 135.736581751949728, 34.752329076155888 ], [ 135.736627621304706, 34.752274237853136 ], [ 135.73666934098884, 34.752216151483275 ], [ 135.736715231692926, 34.752154551316409 ], [ 135.736774198157178, 34.75199902540686 ], [ 135.736835023227144, 34.751869703425271 ], [ 135.736877730847993, 34.75174259678591 ], [ 135.736874735517205, 34.751644269769365 ], [ 135.736841880653657, 34.751524187008151 ], [ 135.736792307443466, 34.75143505817374 ], [ 135.736717777518379, 34.75135249747769 ], [ 135.736624520023867, 34.751288912154365 ], [ 135.736483516425807, 34.751213253002192 ], [ 135.736350768827691, 34.751144513398039 ], [ 135.736226274232962, 34.751103118109839 ], [ 135.736118409657252, 34.751058237050877 ], [ 135.735964554800262, 34.750938742062324 ], [ 135.735929495982333, 34.750834430992256 ], [ 135.735954548886411, 34.750684327638005 ], [ 135.735988137550038, 34.750379154046968 ], [ 135.736054421941589, 34.750056161015578 ], [ 135.736163665260506, 34.749894966622435 ], [ 135.736381326844281, 34.749832463122232 ], [ 135.736696716549432, 34.74981524126887 ], [ 135.737033466656641, 34.749923711946259 ], [ 135.737277128457436, 34.749942678609074 ], [ 135.737431888275751, 34.749890886631597 ], [ 135.737568179017558, 34.749749890602203 ], [ 135.737836444458878, 34.749591142036031 ], [ 135.737991663880393, 34.749508360730843 ], [ 135.738186173826819, 34.749460595291211 ], [ 135.738360122947341, 34.749472088820269 ], [ 135.738479852189869, 34.74943430831356 ], [ 135.738550801779581, 34.749346841089441 ], [ 135.73859205546978, 34.749198882620632 ], [ 135.738665600277983, 34.749147481719874 ], [ 135.738826146001372, 34.749100629834189 ], [ 135.738921476317643, 34.749040259826565 ], [ 135.73894642440419, 34.748880997483816 ], [ 135.738967351252342, 34.748711585235412 ], [ 135.738984383646198, 34.748484975140926 ], [ 135.738973885723311, 34.748363812484889 ], [ 135.739017495127399, 34.748327984135983 ], [ 135.739150860545351, 34.748274454694226 ], [ 135.739289601419358, 34.748241078385618 ], [ 135.739417428950759, 34.748225709907743 ], [ 135.739636648388029, 34.74809939240734 ], [ 135.739783686989085, 34.748018845266152 ], [ 135.739876145468315, 34.748010163256801 ], [ 135.739960335099767, 34.748032736304559 ], [ 135.74001454108901, 34.748086657848866 ], [ 135.740095825397589, 34.748172048486879 ], [ 135.74021243562612, 34.748257653541962 ], [ 135.740386453454505, 34.748246746928984 ], [ 135.740587716990888, 34.748213640570896 ], [ 135.740729216384409, 34.748164492822575 ], [ 135.740813738297788, 34.748081559447684 ], [ 135.74087378320138, 34.748007731720222 ], [ 135.740967708261593, 34.747966372507101 ], [ 135.741304940281907, 34.747913263419541 ], [ 135.74160689437781, 34.747844302635109 ], [ 135.74183560745368, 34.747723634557026 ], [ 135.741977195763951, 34.747652088184317 ], [ 135.742256057106289, 34.747572935712689 ], [ 135.742484530966379, 34.747535374935396 ], [ 135.742677546618239, 34.747526757716024 ], [ 135.742824407036466, 34.747502408843424 ], [ 135.743085600747378, 34.747431106703182 ], [ 135.743576690831588, 34.747289704566022 ], [ 135.743791561246894, 34.747249717400727 ], [ 135.743971169267269, 34.747189514722621 ], [ 135.744139827641419, 34.747144925628135 ], [ 135.744305714582794, 34.747127375162414 ], [ 135.744532547217148, 34.747171506749325 ], [ 135.744720122388088, 34.747169777818691 ], [ 135.7448588809265, 34.747129633065079 ], [ 135.745033159677376, 34.747033498226507 ], [ 135.745245586934828, 34.746899266390365 ], [ 135.745417064423151, 34.746825662136075 ], [ 135.745682387424239, 34.746735345537004 ], [ 135.745872960161307, 34.746639101469206 ], [ 135.746216064272176, 34.746449209750608 ], [ 135.746496395987407, 34.746333002589552 ], [ 135.746621715859447, 34.746243526497885 ], [ 135.746747007230226, 34.746163065991411 ], [ 135.746907527451498, 34.746113947224131 ], [ 135.747123823675395, 34.74605268638571 ], [ 135.747289937022742, 34.745952029107855 ], [ 135.747605736447639, 34.74580012760066 ], [ 135.7478399294491, 34.745652564905122 ], [ 135.747983183630623, 34.745478893969569 ], [ 135.747988867934794, 34.745398191452679 ], [ 135.747886151018037, 34.745204995477167 ], [ 135.747799732572872, 34.745018595621637 ], [ 135.747707798263832, 34.744863598841938 ], [ 135.747617202133256, 34.744702976836436 ], [ 135.747503585616215, 34.744529911872462 ], [ 135.747479614890182, 34.744366188116487 ], [ 135.747488178742401, 34.744229294267392 ], [ 135.747434234961219, 34.744087763651187 ], [ 135.747320461119472, 34.743959772144976 ], [ 135.74734139323138, 34.743781351570419 ], [ 135.747352733507057, 34.743628829082823 ], [ 135.74729617782404, 34.743455881769194 ], [ 135.747310131095077, 34.743328013854899 ], [ 135.747342982637775, 34.743256386931158 ], [ 135.747430205513865, 34.743177969430498 ], [ 135.747514614818328, 34.743126591390457 ], [ 135.747690243487227, 34.743029340865554 ], [ 135.747883575992176, 34.742910857897535 ], [ 135.748030511709317, 34.742857213881301 ], [ 135.748109780192578, 34.742713844793322 ], [ 135.748213378714837, 34.742608698205991 ], [ 135.748374238655373, 34.742449721614065 ], [ 135.748559772824876, 34.74221445155969 ], [ 135.748641749837503, 34.742070947107564 ], [ 135.748685559441384, 34.74196567692519 ], [ 135.748770223872327, 34.74182893890908 ], [ 135.748910456448414, 34.741762179456451 ], [ 135.748747614708776, 34.741729589553593 ], [ 135.748659667512243, 34.741724055771357 ], [ 135.748535667556041, 34.741769579049262 ], [ 135.748434495543847, 34.741820501661444 ], [ 135.748258484358274, 34.741833520762157 ], [ 135.748131441808511, 34.741819877868693 ], [ 135.747948911080812, 34.741830206827089 ], [ 135.747789276660939, 34.741816496407367 ], [ 135.74770785391172, 34.741797453795961 ], [ 135.747554690502199, 34.741802490232445 ], [ 135.74747316912061, 34.74181584405725 ], [ 135.747411140697892, 34.741858677451475 ], [ 135.74732279190664, 34.741971460519217 ], [ 135.74708773839356, 34.742110847747753 ], [ 135.746957159928826, 34.742185941366259 ], [ 135.746888520013698, 34.742255807691805 ], [ 135.746842895142436, 34.742255715367428 ], [ 135.74664425188044, 34.742204183187305 ], [ 135.746233864059008, 34.742130669794975 ], [ 135.745978188269021, 34.742077752498552 ], [ 135.74586419352687, 34.7420586457132 ], [ 135.745750246446818, 34.742023481917663 ], [ 135.745486285317668, 34.742022945018149 ], [ 135.745280956518712, 34.742030555758305 ], [ 135.745065952718562, 34.742000537944932 ], [ 135.744886763841265, 34.741984114965405 ], [ 135.74469131238186, 34.741956671762011 ], [ 135.744642485806565, 34.741943191311613 ], [ 135.744597207105755, 34.741830131919848 ], [ 135.744597437899586, 34.741754774525042 ], [ 135.744630387110305, 34.741631170411488 ], [ 135.744669795089067, 34.741537018901568 ], [ 135.74470587741439, 34.741456381651268 ], [ 135.744681634282529, 34.741390411619079 ], [ 135.744644526660068, 34.741311738276913 ], [ 135.744643657066661, 34.741309905925036 ], [ 135.744397053254943, 34.741130796712191 ], [ 135.744376510630332, 34.741117654557904 ], [ 135.744441872241566, 34.740823117740298 ], [ 135.744448971817576, 34.740754817161623 ], [ 135.744463064048659, 34.740652443760808 ], [ 135.744459743062038, 34.740650324682385 ], [ 135.744339315810379, 34.740538379109346 ], [ 135.744187897598323, 34.740446936012788 ], [ 135.744057186932451, 34.740349899781904 ], [ 135.743912536074589, 34.740298472691904 ], [ 135.743795503857257, 34.740241326959392 ], [ 135.743692285896628, 34.740172800108276 ], [ 135.743581933858167, 34.740183842149563 ], [ 135.743513079687204, 34.740149613661302 ], [ 135.74336171634809, 34.740041125393432 ], [ 135.743210369455085, 34.739927002697677 ], [ 135.743107292635273, 34.739812979064013 ], [ 135.74300401079708, 34.739772904887914 ], [ 135.742907576726623, 34.739738618710923 ], [ 135.742866443870639, 34.739658810039131 ], [ 135.742790789261647, 34.739595972743928 ], [ 135.742646161985618, 34.739544544584241 ], [ 135.742439325772892, 34.739538342535035 ], [ 135.742233558070637, 34.739510591892554 ], [ 135.742158773172065, 34.739456630442398 ], [ 135.742058181130176, 34.739319228759648 ], [ 135.742004712737014, 34.739220942066865 ], [ 135.742021416573834, 34.739089135162452 ], [ 135.742024857396217, 34.739075107820675 ], [ 135.742051120146527, 34.738968060188576 ], [ 135.740527117476518, 34.739045752968288 ], [ 135.740540956398235, 34.739115505653032 ], [ 135.740540462838908, 34.739273968081172 ], [ 135.740473233665483, 34.739807392405254 ], [ 135.740387664275119, 34.740209359572674 ], [ 135.740252937663939, 34.740601505418539 ], [ 135.74005447575081, 34.741157757181107 ], [ 135.739936467072766, 34.741447535002116 ], [ 135.739708428051017, 34.741719758291751 ], [ 135.739431167035264, 34.742009203991671 ], [ 135.739172705874438, 34.74227530624318 ], [ 135.738930893124063, 34.742462422315135 ], [ 135.738620893306717, 34.742728557371365 ], [ 135.738437757223977, 34.742875087198762 ], [ 135.738118742732553, 34.743029079913001 ], [ 135.738091056399554, 34.742893659244679 ], [ 135.738007511677836, 34.742653745627152 ], [ 135.737896211566522, 34.742293905229779 ], [ 135.737761574043532, 34.741914718295547 ], [ 135.737594595344689, 34.741388549605752 ], [ 135.737600762799275, 34.740920777346091 ], [ 135.737527321558332, 34.740441146642453 ], [ 135.737528663075892, 34.740015762032677 ], [ 135.737454513504645, 34.739768261618764 ], [ 135.737558872413871, 34.739350841259835 ], [ 135.737672058855736, 34.739103593301301 ], [ 135.737663621970597, 34.738809748330972 ], [ 135.737786268004129, 34.738531673129231 ], [ 135.737862826569, 34.738021369069195 ], [ 135.737789995085365, 34.73734848397519 ], [ 135.737720598777798, 34.737081555249191 ], [ 135.737449884839123, 34.7367794110231 ], [ 135.736861061745799, 34.736352783451792 ], [ 135.736346579105572, 34.736127454044244 ], [ 135.736254442245411, 34.736012039682137 ], [ 135.736049457908791, 34.735741303130787 ], [ 135.735875185321078, 34.735565286996433 ], [ 135.735845410047062, 34.735370702131 ], [ 135.735975493718911, 34.735094900254325 ], [ 135.73612062440651, 34.734869274653725 ], [ 135.736143901891182, 34.73471874957724 ], [ 135.736341827916135, 34.734625076316632 ], [ 135.736622860531355, 34.734682152536138 ] ] ] } },
{ "type": "Feature", "properties": { "ID": "RNE2901002186", "Date": "2026年9月11日", "Type": "4G", "PostalCode": "6308425", "Prefecture": "奈良県", "City": "奈良市", "addr": "奈良県奈良市鹿野園町" }, "geometry": { "type": "MultiPolygon", "coordinates": [ [ [ [ 135.886968827345953, 34.659650393528878 ], [ 135.886830068864128, 34.659796197843519 ], [ 135.886704395579358, 34.6599484926885 ], [ 135.886249952060183, 34.660400629855381 ], [ 135.886250126983725, 34.660400786287205 ], [ 135.886717577658658, 34.660689579521666 ], [ 135.887301059704157, 34.660045535915224 ], [ 135.88736347522098, 34.659877828078621 ], [ 135.886968827345953, 34.659650393528878 ] ] ], [ [ [ 135.847270242225136, 34.666004808967969 ], [ 135.847352056453417, 34.665973358626559 ], [ 135.84761082167708, 34.66595311807302 ], [ 135.84780950607626, 34.665960269893837 ], [ 135.848066289881103, 34.66588706196076 ], [ 135.848099255963376, 34.665969225853637 ], [ 135.848169510817456, 34.666035942588991 ], [ 135.848293532781184, 34.666124981784009 ], [ 135.848440780189947, 34.666530992521778 ], [ 135.848513521474644, 34.666928316732857 ], [ 135.848561622131058, 34.667282082884455 ], [ 135.848632042068374, 34.667277241010076 ], [ 135.848687038071375, 34.667280971416325 ], [ 135.848817258990096, 34.667297332789701 ], [ 135.848909586960417, 34.667314774342714 ], [ 135.849689124700859, 34.66731292421651 ], [ 135.849769969588579, 34.667181880600687 ], [ 135.849872034066863, 34.66704170768292 ], [ 135.850048256182248, 34.666950928233312 ], [ 135.850258379324288, 34.666879488564099 ], [ 135.850608484043477, 34.666811461326766 ], [ 135.850744188757773, 34.666841491091809 ], [ 135.850854280081677, 34.666947695210958 ], [ 135.851221314942705, 34.666743613533427 ], [ 135.851252708428206, 34.666742243389024 ], [ 135.851274181388874, 34.666746355259299 ], [ 135.851351721050065, 34.666817444820879 ], [ 135.85138637815777, 34.666843405909034 ], [ 135.8514342931025, 34.666850366260149 ], [ 135.851500399903301, 34.666843545451329 ], [ 135.85155495849466, 34.666829948000249 ], [ 135.85160858189974, 34.666802263715581 ], [ 135.851708761717646, 34.666468543364182 ], [ 135.851756873035242, 34.666400706047988 ], [ 135.851858172014261, 34.666322933028397 ], [ 135.85239696279254, 34.666046233084273 ], [ 135.852915412241714, 34.665647659900401 ], [ 135.853619242130179, 34.665102250775035 ], [ 135.854154909007065, 34.6646472091604 ], [ 135.854503010707475, 34.664326604665632 ], [ 135.854661060737925, 34.664139167100593 ], [ 135.854603145185166, 34.663978092720377 ], [ 135.854523551327503, 34.663704725508119 ], [ 135.854438374315833, 34.663565733408397 ], [ 135.854430472179899, 34.663501772718249 ], [ 135.854508116848166, 34.663365371354232 ], [ 135.854449560112897, 34.663272754737996 ], [ 135.8545590529572, 34.663239784155643 ], [ 135.854772643566008, 34.663211446274097 ], [ 135.85515431838968, 34.663222891816922 ], [ 135.855295814941371, 34.663216440945916 ], [ 135.855493414215061, 34.663168221228432 ], [ 135.855888769766153, 34.66298796864811 ], [ 135.856059637950239, 34.662963803492154 ], [ 135.856198439848157, 34.662961855988875 ], [ 135.856469680721148, 34.66300922640508 ], [ 135.856674982067972, 34.663029754306613 ], [ 135.856956994941186, 34.663002198285348 ], [ 135.85704775272535, 34.663002305788467 ], [ 135.857047844570786, 34.662948519547918 ], [ 135.857042215797094, 34.662912120666995 ], [ 135.856999065290012, 34.662775532295633 ], [ 135.856955891223606, 34.662701537335622 ], [ 135.856923714784301, 34.662664965555152 ], [ 135.856849196160198, 34.662635816875927 ], [ 135.856740975266916, 34.662617797978754 ], [ 135.856433577318541, 34.662597158519425 ], [ 135.856205518550496, 34.662602850445289 ], [ 135.856012095767852, 34.662610966920731 ], [ 135.855714780039818, 34.662602264645038 ], [ 135.855417479501597, 34.662585212864627 ], [ 135.855016251919352, 34.662571612628945 ], [ 135.85466409409608, 34.662560453807288 ], [ 135.854493753160341, 34.662549859432694 ], [ 135.854384796344817, 34.662544140305471 ], [ 135.85421714518256, 34.662500355495673 ], [ 135.854126645004584, 34.662468693099925 ], [ 135.853835613378692, 34.662312378307142 ], [ 135.854177110859069, 34.661628543759321 ], [ 135.854376233454332, 34.661241181439998 ], [ 135.85444144359252, 34.661089200295152 ], [ 135.854463892028434, 34.661030046000143 ], [ 135.854491763398187, 34.660956602506346 ], [ 135.85454518620864, 34.660815824722796 ], [ 135.853193274317675, 34.660341111912921 ], [ 135.852617286933906, 34.66013885206015 ], [ 135.852144352030848, 34.659911400237299 ], [ 135.85184223687844, 34.65985874345396 ], [ 135.851562066963822, 34.659733991392883 ], [ 135.851195881899741, 34.659509967396446 ], [ 135.850672971494106, 34.659071191798084 ], [ 135.850517328061812, 34.658860949787737 ], [ 135.850418380288573, 34.658671511690549 ], [ 135.850309782930537, 34.658385600073771 ], [ 135.850274346272613, 34.658297315197387 ], [ 135.850278790736581, 34.658232202671265 ], [ 135.850287333640551, 34.658122333102334 ], [ 135.850304243276497, 34.658038313968682 ], [ 135.850310459657379, 34.657999757929723 ], [ 135.850355327054729, 34.657921381856063 ], [ 135.85046022724265, 34.657826853439651 ], [ 135.850483235435888, 34.657770988463241 ], [ 135.850486946592639, 34.657748070823821 ], [ 135.850494480701144, 34.65770151432401 ], [ 135.850497277639647, 34.657587742485703 ], [ 135.850499171985405, 34.657495436380458 ], [ 135.85050677587418, 34.657411317649633 ], [ 135.850490771193108, 34.657348018194767 ], [ 135.850442366434578, 34.657297154252653 ], [ 135.85036708992024, 34.657261283498308 ], [ 135.850255666184722, 34.657098710193388 ], [ 135.850177059117499, 34.656986984353445 ], [ 135.85014387228199, 34.656962850258481 ], [ 135.849806092627915, 34.657104982768111 ], [ 135.849673974039632, 34.657164402822367 ], [ 135.849438020120459, 34.657176364958438 ], [ 135.849310676733211, 34.657191701389124 ], [ 135.849128957307158, 34.657248805387518 ], [ 135.8489303849762, 34.657297999945236 ], [ 135.848731788877814, 34.657361281178353 ], [ 135.848619384516923, 34.65739973533519 ], [ 135.848321448150017, 34.657523178532365 ], [ 135.848208140478533, 34.657536136654663 ], [ 135.847944081334191, 34.657559047562614 ], [ 135.847734179721641, 34.65765217387856 ], [ 135.847515723877876, 34.657798392965681 ], [ 135.847324742700408, 34.657831958756304 ], [ 135.847051974042358, 34.657842884845763 ], [ 135.846869430020007, 34.657843360789435 ], [ 135.846820051176138, 34.657876400905742 ], [ 135.846717017430336, 34.657896414739568 ], [ 135.846638359912589, 34.657905612881585 ], [ 135.846621642712904, 34.65795334323716 ], [ 135.846612759195978, 34.65808883987318 ], [ 135.846540930070489, 34.658461603372622 ], [ 135.846542049080796, 34.658550627870966 ], [ 135.846892207095578, 34.65853613519009 ], [ 135.846895788652347, 34.658981959216909 ], [ 135.846764734196285, 34.658971090026824 ], [ 135.846782009077259, 34.659254943066252 ], [ 135.846598756251353, 34.659250629943109 ], [ 135.846673824945753, 34.659538780044329 ], [ 135.846965948291597, 34.659537454847033 ], [ 135.847115751577149, 34.659539332119365 ], [ 135.847138106975677, 34.659598098287695 ], [ 135.847177172288696, 34.659749852632828 ], [ 135.847055420697217, 34.659768153056241 ], [ 135.84710117169692, 34.659840189176158 ], [ 135.847110410315821, 34.659911334589331 ], [ 135.847102702209355, 34.660027392950091 ], [ 135.846733827330496, 34.660017636833032 ], [ 135.846727891930499, 34.660191026058996 ], [ 135.846620314043179, 34.660146661753132 ], [ 135.846335817481787, 34.660064325472753 ], [ 135.846266592491105, 34.660034939961108 ], [ 135.84611897564568, 34.659859807455575 ], [ 135.845575326419748, 34.659675866780127 ], [ 135.845565368756297, 34.659850378030967 ], [ 135.845563142099138, 34.659897845970825 ], [ 135.845561232838179, 34.659897874378736 ], [ 135.845567868500865, 34.660576677369612 ], [ 135.84586000498129, 34.660583302538342 ], [ 135.845663782585433, 34.661094206144313 ], [ 135.84510061984173, 34.661236413089462 ], [ 135.844973231528201, 34.661264142486708 ], [ 135.845081535338579, 34.661431197745607 ], [ 135.845074366428776, 34.661463937442058 ], [ 135.845092409031651, 34.66150457176704 ], [ 135.84534423857562, 34.661619379926769 ], [ 135.845191737783153, 34.662069949845268 ], [ 135.845170990143117, 34.66207893892468 ], [ 135.845136401909542, 34.662109818062298 ], [ 135.84495787708056, 34.66226708816945 ], [ 135.844856285062519, 34.662331869654665 ], [ 135.844718675439708, 34.662402916267389 ], [ 135.844426066459505, 34.662508023600374 ], [ 135.844404221076331, 34.662520617461112 ], [ 135.844386728464713, 34.662539527060382 ], [ 135.844357160787126, 34.662597187297081 ], [ 135.844363611327793, 34.662648582976651 ], [ 135.844381000831447, 34.662684665966026 ], [ 135.844383120585974, 34.662718024583199 ], [ 135.844373253184216, 34.662743255170042 ], [ 135.844305405987512, 34.662849548227435 ], [ 135.844255143384174, 34.662888249849082 ], [ 135.844230186185456, 34.662899632481604 ], [ 135.844119748064912, 34.662941268594864 ], [ 135.844145582391434, 34.663128817596728 ], [ 135.844033899520269, 34.663336927338896 ], [ 135.843982582341596, 34.663355794962108 ], [ 135.843883108166438, 34.663453933567666 ], [ 135.843822014476132, 34.663497344504648 ], [ 135.843768385303804, 34.663537629611781 ], [ 135.843685401092699, 34.663569978511205 ], [ 135.843612282147149, 34.663577999248567 ], [ 135.843555561922557, 34.663568911700096 ], [ 135.843480335393991, 34.66353726244472 ], [ 135.843428605711267, 34.663775198123396 ], [ 135.843379366830902, 34.663849060238867 ], [ 135.843346591309114, 34.663871556452094 ], [ 135.843298565600804, 34.663880510332852 ], [ 135.84323202572449, 34.663871410079317 ], [ 135.843188376587733, 34.663874058741278 ], [ 135.843146885288917, 34.663889331683379 ], [ 135.843048367626949, 34.664090291841511 ], [ 135.843010052720928, 34.664200443250017 ], [ 135.843009707183825, 34.664211319513377 ], [ 135.842998582268223, 34.664221578357463 ], [ 135.842838757145699, 34.664410129879116 ], [ 135.842721493062783, 34.664585635503997 ], [ 135.842538020450178, 34.664629349218309 ], [ 135.842674874852548, 34.66463713149642 ], [ 135.843302011030232, 34.664686250586065 ], [ 135.843555418568343, 34.664900685837132 ], [ 135.843714509165665, 34.665096406504439 ], [ 135.843658451438046, 34.665225928910601 ], [ 135.843692783710765, 34.665344579829068 ], [ 135.843526343223999, 34.665521008987866 ], [ 135.843358529458413, 34.665725046345855 ], [ 135.843220035407001, 34.66587418387256 ], [ 135.84310035695529, 34.665911358789032 ], [ 135.842970147921932, 34.665904571429579 ], [ 135.842539790708173, 34.665798653750628 ], [ 135.842425610443598, 34.665745824834481 ], [ 135.842256024414326, 34.665621346955255 ], [ 135.842290778537432, 34.66482401362353 ], [ 135.842170752875518, 34.664825662311216 ], [ 135.842173949616637, 34.664709801825609 ], [ 135.841604759347007, 34.664841131532562 ], [ 135.841147770841729, 34.664768136779784 ], [ 135.840874145227616, 34.664704111983021 ], [ 135.840766607569321, 34.664650162814333 ], [ 135.840690234654318, 34.664285511020012 ], [ 135.840653242812948, 34.664177843876928 ], [ 135.840557637913605, 34.664136024258291 ], [ 135.840403538694545, 34.664109482484839 ], [ 135.840198957725534, 34.664080620946756 ], [ 135.840002336781424, 34.664051910321398 ], [ 135.839764465987827, 34.664052586325631 ], [ 135.839708197995037, 34.664511442515106 ], [ 135.839916380905152, 34.664523829253888 ], [ 135.83997853428221, 34.664866910256045 ], [ 135.840034934158098, 34.665083348810143 ], [ 135.840069141515357, 34.665220030162963 ], [ 135.840129371032162, 34.665428867105007 ], [ 135.83966143966839, 34.665437975821206 ], [ 135.839714475486147, 34.665629758581325 ], [ 135.839950070717151, 34.665961516152947 ], [ 135.840178312262225, 34.666150710833151 ], [ 135.840455842608463, 34.666553094454507 ], [ 135.840501258688448, 34.66678092842421 ], [ 135.840506196971205, 34.666805585809641 ], [ 135.840676023067459, 34.666757490996858 ], [ 135.840780433750325, 34.666636484933193 ], [ 135.84096980965171, 34.666550805320313 ], [ 135.841484444952869, 34.666488224550598 ], [ 135.841878850330147, 34.666477324456004 ], [ 135.842091497221503, 34.666463653368545 ], [ 135.842231873648132, 34.666430449781828 ], [ 135.84235102471348, 34.666384963650685 ], [ 135.842611426105265, 34.666407273102131 ], [ 135.842945298420318, 34.666367273993906 ], [ 135.843189963143487, 34.666281520779876 ], [ 135.84346018298902, 34.666171288460106 ], [ 135.843633549905348, 34.666119813722489 ], [ 135.84386010418595, 34.666054319127049 ], [ 135.844313849088991, 34.666150543033609 ], [ 135.844334836170503, 34.66628917885582 ], [ 135.844308938007174, 34.666496354803613 ], [ 135.844334325864168, 34.666561184028374 ], [ 135.844336272517893, 34.666659508843814 ], [ 135.844308473879266, 34.666743709555213 ], [ 135.844351674728244, 34.666946607110503 ], [ 135.844360827028225, 34.667168618744405 ], [ 135.844347707425044, 34.667363415513783 ], [ 135.844379434538013, 34.667451213454029 ], [ 135.844438807299696, 34.667537215300584 ], [ 135.844656974801751, 34.667427346830927 ], [ 135.844933005525206, 34.66729893860699 ], [ 135.846295161574716, 34.66665733469938 ], [ 135.846544854123152, 34.666508050536848 ], [ 135.847270242225136, 34.666004808967969 ] ] ] ] } }
]
}
